OBJECT A                
1 44879U 19093A   20141.16434790  .00000085  00000-0  17646-4 0  9997
2 44879  97.9583 217.3868 0016341 126.6906 233.5819 14.81396296 22515
OBJECT B                
1 44880U 19093B   20141.02874251  .00000102  00000-0  19846-4 0  9998
2 44880  97.9584 217.2563 0016491 127.5563 232.7137 14.81409307 22482
OBJECT C                
1 44881U 19093C   20141.16025913  .00000227  00000-0  35821-4 0  9996
2 44881  97.9583 217.4023 0015597 126.1590 234.1080 14.81431507 22509
OBJECT D                
1 44882U 19093D   20141.02133709  .00000147  00000-0  25598-4 0  9996
2 44882  97.9619 217.3324 0017522 128.9071 231.3696 14.81490760 22482
CBERS 4A                
1 44883U 19093E   20141.21792114  .00000048  00000-0  12841-4 0  9996
2 44883  97.9589 217.4882 0001344  87.5589 272.5785 14.81517713 22527
OBJECT F                
1 44884U 19093F   20140.98826388  .00000146  00000-0  25281-4 0  9992
2 44884  97.9567 217.2710 0014923 133.6145 226.6319 14.81811106 22481
FLORIPASAT-1            
1 44885U 19093G   20140.96735036  .00000168  00000-0  27918-4 0  9993
2 44885  97.9579 217.3284 0015856 136.8263 223.4184 14.82019900 22482
OBJECT H                
1 44886U 19093H   20141.40309812  .00000126  00000-0  22507-4 0  9996
2 44886  97.9591 217.8769 0016182 141.4790 218.7578 14.82367342 22558
OBJECT J                
1 44887U 19093J   20141.40375281  .00000065  00000-0  14903-4 0  9993
2 44887  97.9584 217.8682 0016094 140.9469 219.2909 14.82357520 22555
CZ-4B R/B               
1 44888U 19093K   20141.23680292  .00000316  00000-0  20089-4 0  9997
2 44888  97.8652 222.7001 0122987 222.1957 136.9756 15.11032322 22979
OBJECT L                
1 44889U 19093L   20141.16135964  .00000070  00000-0  15963-4 0  9993
2 44889  97.9550 217.1797 0016821 117.8357 242.4568 14.80773590 22429
OBJECT M                
1 44890U 19093M   20141.14519523  .00000408  00000-0  52631-4 0  9998
2 44890  97.9081 217.4059 0049413 148.9177 211.4982 14.85568590 22481
OBJECT N                
1 44891U 19093N   20141.21347742  .00000357  00000-0  46942-4 0  9990
2 44891  98.0147 219.6553 0023683 250.9520 108.9137 14.86214844 22503
